{
 "generated_at": "2026-07-02T08:12:02Z",
 "sources": [
  {
   "name": "CelesTrak",
   "url": "https://celestrak.org/NORAD/elements/",
   "license": "frei verfügbar; Attribution. Ursprünglich USSPACECOM/Space-Track."
  },
  {
   "name": "GCAT (J. McDowell, planet4589.org)",
   "url": "https://planet4589.org/space/gcat/",
   "license": "CC-BY 4.0"
  }
 ],
 "satellites": [
  {
   "norad": 43437,
   "name": "SENTINEL-3B",
   "intl": "2018-039A",
   "group": "resource",
   "gcat": {
    "class": "C",
    "category": "IMG",
    "owner": "COPERN/ESA",
    "state": "I-EU"
   },
   "omm": {
    "OBJECT_NAME": "SENTINEL-3B",
    "OBJECT_ID": "2018-039A",
    "EPOCH": "2026-07-01T22:00:27.345024",
    "MEAN_MOTION": 14.26738948,
    "ECCENTRICITY": 0.00008259,
    "INCLINATION": 98.6244,
    "RA_OF_ASC_NODE": 250.2376,
    "ARG_OF_PERICENTER": 117.4742,
    "MEAN_ANOMALY": 242.6522,
    "EPHEMERIS_TYPE": 0,
    "CLASSIFICATION_TYPE": "U",
    "NORAD_CAT_ID": 43437,
    "ELEMENT_SET_NO": 999,
    "REV_AT_EPOCH": 42622,
    "BSTAR": 0.000070486517,
    "MEAN_MOTION_DOT": 0.00000127,
    "MEAN_MOTION_DDOT": 0
   }
  },
  {
   "norad": 42969,
   "name": "SENTINEL-5P",
   "intl": "2017-064A",
   "group": "resource",
   "gcat": {
    "class": "C",
    "category": "IMG",
    "owner": "COPERN/ESA",
    "state": "I-EU"
   },
   "omm": {
    "OBJECT_NAME": "SENTINEL-5P",
    "OBJECT_ID": "2017-064A",
    "EPOCH": "2026-07-01T10:33:39.626208",
    "MEAN_MOTION": 14.19521372,
    "ECCENTRICITY": 0.00010441,
    "INCLINATION": 98.7927,
    "RA_OF_ASC_NODE": 124.4701,
    "ARG_OF_PERICENTER": 90.9514,
    "MEAN_ANOMALY": 269.1781,
    "EPHEMERIS_TYPE": 0,
    "CLASSIFICATION_TYPE": "U",
    "NORAD_CAT_ID": 42969,
    "ELEMENT_SET_NO": 999,
    "REV_AT_EPOCH": 45158,
    "BSTAR": 0.000051758051,
    "MEAN_MOTION_DOT": 6.5e-7,
    "MEAN_MOTION_DDOT": 0
   }
  },
  {
   "norad": 46984,
   "name": "SENTINEL-6A",
   "intl": "2020-086A",
   "group": "resource",
   "gcat": {
    "class": "C",
    "category": "EOSCI",
    "owner": "COPERN/ESA",
    "state": "I-EU"
   },
   "omm": {
    "OBJECT_NAME": "SENTINEL-6A",
    "OBJECT_ID": "2020-086A",
    "EPOCH": "2026-07-01T22:04:40.357920",
    "MEAN_MOTION": 12.80929961,
    "ECCENTRICITY": 0.00078315,
    "INCLINATION": 66.0412,
    "RA_OF_ASC_NODE": 104.4533,
    "ARG_OF_PERICENTER": 269.9704,
    "MEAN_ANOMALY": 90.0414,
    "EPHEMERIS_TYPE": 0,
    "CLASSIFICATION_TYPE": "U",
    "NORAD_CAT_ID": 46984,
    "ELEMENT_SET_NO": 999,
    "REV_AT_EPOCH": 26221,
    "BSTAR": 0.000031850534,
    "MEAN_MOTION_DOT": -5.4e-7,
    "MEAN_MOTION_DDOT": 0
   }
  },
  {
   "norad": 66514,
   "name": "SENTINEL-6B",
   "intl": "2025-264A",
   "group": "resource",
   "gcat": {
    "class": "C",
    "category": "EOSCI",
    "owner": "COPERN/ESA",
    "state": "I-EU"
   },
   "omm": {
    "OBJECT_NAME": "SENTINEL-6B",
    "OBJECT_ID": "2025-264A",
    "EPOCH": "2026-07-01T22:05:10.417344",
    "MEAN_MOTION": 12.80929981,
    "ECCENTRICITY": 0.0007913,
    "INCLINATION": 66.0412,
    "RA_OF_ASC_NODE": 104.5787,
    "ARG_OF_PERICENTER": 268.8935,
    "MEAN_ANOMALY": 91.1174,
    "EPHEMERIS_TYPE": 0,
    "CLASSIFICATION_TYPE": "U",
    "NORAD_CAT_ID": 66514,
    "ELEMENT_SET_NO": 999,
    "REV_AT_EPOCH": 2905,
    "BSTAR": 0.000038361589,
    "MEAN_MOTION_DOT": -5.2e-7,
    "MEAN_MOTION_DDOT": 0
   }
  },
  {
   "norad": 28220,
   "name": "SHIYAN-1 (SY-1)",
   "intl": "2004-012A",
   "group": "resource",
   "gcat": {
    "class": null,
    "category": null,
    "owner": null,
    "state": null
   },
   "omm": {
    "OBJECT_NAME": "SHIYAN-1 (SY-1)",
    "OBJECT_ID": "2004-012A",
    "EPOCH": "2026-07-01T05:00:47.244096",
    "MEAN_MOTION": 15.34119673,
    "ECCENTRICITY": 0.00043959,
    "INCLINATION": 97.869,
    "RA_OF_ASC_NODE": 261.1911,
    "ARG_OF_PERICENTER": 339.9341,
    "MEAN_ANOMALY": 20.1727,
    "EPHEMERIS_TYPE": 0,
    "CLASSIFICATION_TYPE": "U",
    "NORAD_CAT_ID": 28220,
    "ELEMENT_SET_NO": 999,
    "REV_AT_EPOCH": 21324,
    "BSTAR": 0.00054963777,
    "MEAN_MOTION_DOT": 0.0001809,
    "MEAN_MOTION_DDOT": 0
   }
  },
  {
   "norad": 28893,
   "name": "SINAH 1",
   "intl": "2005-043D",
   "group": "resource",
   "gcat": {
    "class": null,
    "category": null,
    "owner": null,
    "state": null
   },
   "omm": {
    "OBJECT_NAME": "SINAH 1",
    "OBJECT_ID": "2005-043D",
    "EPOCH": "2026-07-01T22:50:59.508960",
    "MEAN_MOTION": 14.64167791,
    "ECCENTRICITY": 0.00135103,
    "INCLINATION": 98.288,
    "RA_OF_ASC_NODE": 317.3623,
    "ARG_OF_PERICENTER": 226.3782,
    "MEAN_ANOMALY": 133.6301,
    "EPHEMERIS_TYPE": 0,
    "CLASSIFICATION_TYPE": "U",
    "NORAD_CAT_ID": 28893,
    "ELEMENT_SET_NO": 999,
    "REV_AT_EPOCH": 10268,
    "BSTAR": 0.000077214486,
    "MEAN_MOTION_DOT": 0.00000357,
    "MEAN_MOTION_DDOT": 0
   }
  },
  {
   "norad": 39418,
   "name": "SKYSAT-A",
   "intl": "2013-066C",
   "group": "resource",
   "gcat": {
    "class": "B",
    "category": "IMG",
    "owner": "SKYBOX",
    "state": "US"
   },
   "omm": {
    "OBJECT_NAME": "SKYSAT-A",
    "OBJECT_ID": "2013-066C",
    "EPOCH": "2026-07-01T20:57:27.732096",
    "MEAN_MOTION": 15.1305424,
    "ECCENTRICITY": 0.00197054,
    "INCLINATION": 97.3804,
    "RA_OF_ASC_NODE": 231.8027,
    "ARG_OF_PERICENTER": 262.552,
    "MEAN_ANOMALY": 97.3473,
    "EPHEMERIS_TYPE": 0,
    "CLASSIFICATION_TYPE": "U",
    "NORAD_CAT_ID": 39418,
    "ELEMENT_SET_NO": 999,
    "REV_AT_EPOCH": 69070,
    "BSTAR": 0.00020304589,
    "MEAN_MOTION_DOT": 0.00003541,
    "MEAN_MOTION_DDOT": 0
   }
  },
  {
   "norad": 40072,
   "name": "SKYSAT-B",
   "intl": "2014-037D",
   "group": "resource",
   "gcat": {
    "class": "B",
    "category": "IMG",
    "owner": "SKYBOX",
    "state": "US"
   },
   "omm": {
    "OBJECT_NAME": "SKYSAT-B",
    "OBJECT_ID": "2014-037D",
    "EPOCH": "2026-07-01T20:25:56.821440",
    "MEAN_MOTION": 14.88064613,
    "ECCENTRICITY": 0.00045445,
    "INCLINATION": 98.3845,
    "RA_OF_ASC_NODE": 142.6529,
    "ARG_OF_PERICENTER": 220.1201,
    "MEAN_ANOMALY": 139.9679,
    "EPHEMERIS_TYPE": 0,
    "CLASSIFICATION_TYPE": "U",
    "NORAD_CAT_ID": 40072,
    "ELEMENT_SET_NO": 999,
    "REV_AT_EPOCH": 64814,
    "BSTAR": 0.00016091917,
    "MEAN_MOTION_DOT": 0.00001418,
    "MEAN_MOTION_DDOT": 0
   }
  },
  {
   "norad": 41601,
   "name": "SKYSAT-C1",
   "intl": "2016-040C",
   "group": "resource",
   "gcat": {
    "class": "B",
    "category": "IMG",
    "owner": "TBELLA",
    "state": "US"
   },
   "omm": {
    "OBJECT_NAME": "SKYSAT-C1",
    "OBJECT_ID": "2016-040C",
    "EPOCH": "2026-07-01T08:23:08.941920",
    "MEAN_MOTION": 15.36540688,
    "ECCENTRICITY": 0.0001956,
    "INCLINATION": 96.9551,
    "RA_OF_ASC_NODE": 213.3028,
    "ARG_OF_PERICENTER": 27.0572,
    "MEAN_ANOMALY": 333.0775,
    "EPHEMERIS_TYPE": 0,
    "CLASSIFICATION_TYPE": "U",
    "NORAD_CAT_ID": 41601,
    "ELEMENT_SET_NO": 999,
    "REV_AT_EPOCH": 56004,
    "BSTAR": 0.00032381521,
    "MEAN_MOTION_DOT": 0.00011479,
    "MEAN_MOTION_DDOT": 0
   }
  },
  {
   "norad": 42988,
   "name": "SKYSAT-C10",
   "intl": "2017-068B",
   "group": "resource",
   "gcat": {
    "class": "B",
    "category": "IMG",
    "owner": "PLABST",
    "state": "US"
   },
   "omm": {
    "OBJECT_NAME": "SKYSAT-C10",
    "OBJECT_ID": "2017-068B",
    "EPOCH": "2026-07-01T21:31:37.983360",
    "MEAN_MOTION": 15.34885082,
    "ECCENTRICITY": 0.00012278,
    "INCLINATION": 97.4525,
    "RA_OF_ASC_NODE": 319.8901,
    "ARG_OF_PERICENTER": 107.322,
    "MEAN_ANOMALY": 252.8157,
    "EPHEMERIS_TYPE": 0,
    "CLASSIFICATION_TYPE": "U",
    "NORAD_CAT_ID": 42988,
    "ELEMENT_SET_NO": 999,
    "REV_AT_EPOCH": 48461,
    "BSTAR": 0.00031298324,
    "MEAN_MOTION_DOT": 0.0001051,
    "MEAN_MOTION_DDOT": 0
   }
  }
 ]
}
